STARLINK-34221          
1 64453U 25130R   26068.43847046  .00028760  00000+0  97956-3 0  9992
2 64453  53.1602  89.7733 0001396  76.5586 283.5571 15.30194722 40665
KUIPER-00223            
1 67783U 26030V   26068.72136600  .00030225  00000+0  90645-3 0  9997
2 67783  51.8827 219.2782 0012824  59.0052 301.2192 15.34146210  5092
